0 FENGYUN 1C DEB
1 31433U 99025BTV 13281.41453308  .00001551  00000-0  10480-2 0  1586
2 31433 098.3899 080.8944 0134915 081.2604 340.3932 13.97348819330451
0 FENGYUN 1C DEB
1 31433U 99025BTV 13284.13490438  .00002108  00000-0  14155-2 0  1596
2 31433 098.3898 083.3798 0134785 073.6361 345.1634 13.97360239330839
0 FENGYUN 1C DEB
1 31433U 99025BTV 13286.13978911  .00001885  00000-0  12680-2 0  1609
2 31433 098.3890 085.2124 0134735 068.0231 350.7550 13.97368034331116
0 FENGYUN 1C DEB
1 31433U 99025BTV 13288.43024610  .00002652  00000-0  17737-2 0  1614
2 31433 098.3888 087.3055 0134704 061.6069 352.9919 13.97378201331438
0 FENGYUN 1C DEB
1 31433U 99025BTV 13290.95104337  .00002421  00000-0  16210-2 0  1629
2 31433 098.3893 089.6094 0134698 054.5449 074.0659 13.97388637331782
0 FENGYUN 1C DEB
1 31433U 99025BTV 13292.95558485  .00002762  00000-0  18459-2 0  1634
2 31433 098.3903 091.4413 0134631 048.8787 078.1997 13.97396761332067
0 FENGYUN 1C DEB
1 31433U 99025BTV 13295.09207657  .00003113  00000-0  20773-2 0  1648
2 31433 098.3906 093.3935 0134630 042.8084 026.2288 13.97406874332360
